satname,norad_id,inclination_deg,eccentricity,mean_motion_rev_per_day,perigee_km,apogee_km,l1,l2
STARLINK-1493,45759,53.0548,0.0001312,15.06408112,546.278093469281,548.0952984070946,1 45759U 20038AF  25332.34253861  .00002030  00000+0  15510-3 0  9999,2 45759  53.0548 311.5813 0001312  86.8589 273.2550 15.06408112301196
STARLINK-1494,45760,53.0543,0.0005574,15.53984026,401.3265688001693,408.8885298237419,1 45760U 20038AG  25332.60098366  .00039046  00000+0  59774-3 0  9994,2 45760  53.0543 286.3072 0005574  92.0439 268.1209 15.53984026301588
STARLINK-1502,45764,53.054,0.0001389,15.06400829,546.2470866120539,548.1709477356262,1 45764U 20038AL  25332.64109987  .00001616  00000+0  12733-3 0  9990,2 45764  53.0540 310.2432 0001389  87.1241 272.9907 15.06400829301256
STARLINK-1470,45772,53.0478,0.0006341,15.19948128,501.6320052071469,510.36246424362616,1 45772U 20038AU  25332.13689276  .00040411  00000+0  18594-2 0  9993,2 45772  53.0478 282.5774 0006341  28.5600 331.5741 15.19948128301594
STARLINK-1482,45773,53.0542,0.0001301,15.06397266,546.3189483296446,548.1209262047214,1 45773U 20038AV  25332.60608866  .00002622  00000+0  19489-3 0  9999,2 45773  53.0542 290.3970 0001301  87.3199 272.7939 15.06397266301524
STARLINK-1496,45780,53.0542,0.0001239,15.06403109,546.3439798117124,548.0600788231768,1 45780U 20038BC  25332.17483920  .00010755  00000+0  73975-3 0  9997,2 45780  53.0542 292.3348 0001239  83.7409 276.3721 15.06403109301441
STARLINK-1497,45781,53.0359,0.0007287,15.63028248,373.99158579836603,383.8393140388771,1 45781U 20038BD  25332.91667823  .00135525  00000+0  14443-2 0  9993,2 45781  53.0359 223.8269 0007287  76.5808 322.3059 15.63028248  5987
STARLINK-1510,45784,53.0255,0.0003932,15.82726301,320.099800447103,325.36936586009415,1 45784U 20038BG  25332.91667823  .00136873  00000+0  62920-3 0  9997,2 45784  53.0255 196.2939 0003932 157.9741 140.0255 15.82726301  5973
STARLINK-1513,45786,53.0566,0.0001692,15.0639706,546.0487981288825,548.3923391301068,1 45786U 20038BJ  25332.27066294 -.00000211  00000+0  47407-5 0  9995,2 45786  53.0566 291.9043 0001692  87.8032 272.3151 15.06397060301474
STARLINK-1522,46027,53.054,0.0001183,15.06396266,546.4037320458701,548.0422722223757,1 46027U 20055A   25331.98592891  .00006648  00000+0  46482-3 0  9996,2 46027  53.0540 223.1820 0001183  90.8982 269.2142 15.06396266293559
STARLINK-1523,46028,53.0539,0.0001546,15.06396449,546.151780693599,548.2931018328372,1 46028U 20055B   25332.39875899  .00002692  00000+0  19958-3 0  9998,2 46028  53.0539 221.3327 0001546  95.6821 264.4344 15.06396449293631
STARLINK-1526,46029,53.0538,0.0001334,15.06399898,546.2880290142739,548.135712092936,1 46029U 20055C   25331.99330510  .00000644  00000+0  62139-4 0  9995,2 46029  53.0538 223.1500 0001334  99.1597 260.9543 15.06399898293563
STARLINK-1555,46032,53.0522,0.0001781,15.06398168,545.9837671819432,548.450578338281,1 46032U 20055F   25331.91220623 -.00001806  00000+0 -10239-3 0  9990,2 46032  53.0522 223.5132 0001781  95.6969 264.4223 15.06398168293557
STARLINK-1556,46033,53.0534,0.0001669,15.06401175,546.052116661569,548.3637968081275,1 46033U 20055G   25332.42455869  .00004830  00000+0  34289-3 0  9999,2 46033  53.0534 221.2153 0001669  84.2659 275.8520 15.06401175293609
STARLINK-1557,46034,53.0536,0.0001285,15.06390356,546.3512044791269,548.1310266548271,1 46034U 20055H   25332.42823988  .00001678  00000+0  13153-3 0  9995,2 46034  53.0536 221.1969 0001285  90.3846 269.7290 15.06390356293600
STARLINK-1558,46035,53.0535,0.0001601,15.06407363,546.0802468044221,548.2977361868998,1 46035U 20055J   25332.10388028  .00006350  00000+0  44475-3 0  9995,2 46035  53.0535 222.6566 0001601  92.1682 267.9490 15.06407363293585
STARLINK-1560,46036,53.0524,0.0001673,15.06392832,546.0749124238573,548.3921414021625,1 46036U 20055K   25332.42087723  .00003840  00000+0  27662-3 0  9999,2 46036  53.0524 221.2339 0001673  84.0890 276.0290 15.06392832293636
STARLINK-1567,46038,53.0538,0.000136,15.0639894,546.2729588418042,548.1566545332234,1 46038U 20055M   25332.43193333  .00004128  00000+0  29583-3 0  9991,2 46038  53.0538 221.1811 0001360 100.6118 259.5024 15.06398940293624
STARLINK-1569,46039,53.0544,0.0001664,15.06408202,546.0340462865342,548.3387939207441,1 46039U 20055N   25332.10756744  .00003816  00000+0  27491-3 0  9996,2 46039  53.0544 222.6392 0001664  98.3174 261.8004 15.06408202293575
STARLINK-1582,46043,53.0543,0.000163,15.0639353,546.1025525802161,548.3602226745816,1 46043U 20055S   25332.11493607  .00006587  00000+0  46075-3 0  9995,2 46043  53.0543 222.6026 0001630 109.9315 250.1849 15.06393530293577
STARLINK-1591,46045,53.0532,0.0001204,15.06400127,546.3773567820845,548.0449806211072,1 46045U 20055U   25332.40612423  .00005690  00000+0  40055-3 0  9994,2 46045  53.0532 221.2983 0001204  88.2701 271.8426 15.06400127293605
STARLINK-1524,46047,53.0525,0.0001519,15.06399695,546.1605321315637,548.2644533074517,1 46047U 20055W   25332.35913925 -.00000623  00000+0 -22897-4 0  9999,2 46047  53.0525 211.5087 0001519 114.7250 245.3897 15.06399695293750
STARLINK-1527,46048,53.0528,0.0001501,15.06411304,546.1374234046516,548.2164026413411,1 46048U 20055X   25332.09007090  .00016870  00000+0  11484-2 0  9995,2 46048  53.0528 212.7161 0001501  92.6688 267.4473 15.06411304293690
STARLINK-1540,46051,53.0528,0.0001508,15.06385989,546.2101509299655,548.2988490063553,1 46051U 20055AA  25332.52131656  .00007639  00000+0  53137-3 0  9998,2 46051  53.0528 210.7812 0001508  88.6292 271.4870 15.06385989293794
STARLINK-1541,46052,53.0526,0.000122,15.06398869,546.3701313455895,548.0599172395159,1 46052U 20055AB  25332.37387874  .00004395  00000+0  31373-3 0  9991,2 46052  53.0526 211.4415 0001220  92.9244 267.1885 15.06398869293739
STARLINK-1543,46053,53.053,0.0001541,15.06387987,546.1811744112783,548.3155781842543,1 46053U 20055AC  25332.37755708  .00003025  00000+0  22197-3 0  9990,2 46053  53.0530 211.4222 0001541  88.4482 271.6683 15.06387987293769
STARLINK-1548,46054,53.0534,0.0001242,15.06395938,546.3638775740965,548.0841372483364,1 46054U 20055AD  25332.38493705  .00005504  00000+0  38813-3 0  9994,2 46054  53.0534 211.3916 0001242  96.9824 263.1307 15.06395938293769
STARLINK-1554,46055,53.0539,0.0001519,15.06398799,546.1632778276689,548.2671998378273,1 46055U 20055AE  25332.10480586  .00006205  00000+0  43512-3 0  9999,2 46055  53.0539 212.6498 0001519  96.8859 263.2303 15.06398799293729
